ISS (ZARYA)             
1 25544U 98067A   26181.86323116  .00005885  00000+0  11296-3 0  9995
2 25544  51.6310 232.3923 0004309 252.2804 107.7714 15.49494077573878
OSCAR 7 (AO-7)          
1 07530U 74089B   26181.49292171 -.00000031  00000+0  93300-4 0  9999
2 07530 101.9899 194.8782 0012650 105.4653  62.9717 12.53698351362186
PHASE 3B (AO-10)        
1 14129U 83058B   26180.99416899 -.00000150  00000+0  00000+0 0  9998
2 14129  25.9232 217.4494 6006519 119.1882 313.2024  2.05871195295751
UOSAT 2 (UO-11)         
1 14781U 84021B   26181.84664606  .00001550  00000+0  16311-3 0  9999
2 14781  97.8065 147.2693 0008703 131.0720 229.1252 14.90818016259166
LUSAT (LO-19)           
1 20442U 90005G   26181.50777458  .00000117  00000+0  58344-4 0  9993
2 20442  98.8846 203.6802 0011882 161.9556 198.2052 14.34127067904309
EYESAT A (AO-27)        
1 22825U 93061C   26181.91470395  .00000112  00000+0  59709-4 0  9991
2 22825  98.6876 249.3230 0009391  64.2642 295.9509 14.30945835708965
ITAMSAT (IO-26)         
1 22826U 93061D   26181.61040879  .00000102  00000+0  55350-4 0  9996
2 22826  98.6824 248.9377 0009728  49.7040 310.4992 14.31372958709231
RADIO ROSTO (RS15)      
1 23439U 94085A   26181.95147942 -.00000027  00000+0  43208-3 0  9995
2 23439  64.8181 280.9561 0156409   1.3290 358.8021 11.27583409297456
JAS-2 (FO-29)           
1 24278U 96046B   26181.84096784 -.00000024  00000+0  90797-5 0  9995
2 24278  98.5227  28.8419 0350829  61.1047 302.4816 13.53274923475016
TECHSAT 1B (GO-32)      
1 25397U 98043D   26181.97249182  .00000062  00000+0  46975-4 0  9992
2 25397  99.0073 175.0791 0001716 137.9285 222.2025 14.24431061453290
PCSAT (NO-44)           
1 26931U 01043C   26181.42991921  .00000101  00000+0  68747-4 0  9991
2 26931  67.0490 210.0201 0006029 265.4507  94.5906 14.31960263292349
SAUDISAT 1C (SO-50)     
1 27607U 02058C   26181.97879977  .00000954  00000+0  12969-3 0  9995
2 27607  64.5520  86.3145 0074937 259.9000  99.3646 14.83075137266503
CUTE-1 (CO-55)          
1 27844U 03031E   26180.96278102  .00000311  00000+0  15340-3 0  9994
2 27844  98.6736 189.3610 0010300 142.4898 217.7002 14.24343456193495
CUBESAT XI-IV (CO-57)   
1 27848U 03031J   26180.95765288  .00000265  00000+0  13524-3 0  9993
2 27848  98.6768 189.0585 0009785 160.0224 200.1339 14.23627529193197
MOZHAETS 4 (RS22)       
1 27939U 03042A   26182.01415103  .00000701  00000+0  11618-3 0  9990
2 27939  98.3465   6.7637 0010197 220.5845 290.0157 14.73490730217585
CUBESAT XI-V            
1 28895U 05043F   26181.38022833  .00001474  00000+0  23930-3 0  9996
2 28895  98.2997 337.2799 0014555 159.1785 201.0018 14.72666866103697
CUTE-1.7+APD II (CO-65) 
1 32785U 08021C   26181.90410523  .00006246  00000+0  39271-3 0  9990
2 32785  97.8277 163.6092 0008343 353.8855   6.2270 15.09581069987262
SEEDS II (CO-66)        
1 32791U 08021J   26181.97379828  .00021117  00000+0  65942-3 0  9994
2 32791  97.7516 180.5337 0001254 192.0562 168.0649 15.33219425989402
YUBILEINY (RS30)        
1 32953U 08025A   26181.94068781  .00000099  00000+0  63876-3 0  9998
2 32953  82.5042 346.8830 0018515 282.1118  77.7887 12.43180517821401
KKS-1 (KISEKI)          
1 33499U 09002H   26181.88462629  .00001396  00000+0  17793-3 0  9990
2 33499  98.1184 104.5439 0006481 241.5806 118.4754 14.83158419938220
SWISSCUBE               
1 35932U 09051B   26181.98887035  .00001050  00000+0  21681-3 0  9999
2 35932  98.4025  90.1172 0006967 158.7249 201.4242 14.62507548891179
BEESAT-1                
1 35933U 09051C   26181.52633795  .00000828  00000+0  17586-3 0  9993
2 35933  98.3953  89.2540 0005133 171.1167 189.0125 14.61741181891138
ITUPSAT1                
1 35935U 09051E   26180.70676922  .00000759  00000+0  16668-3 0  9996
2 35935  98.4038  87.6006 0006953 190.2945 169.8114 14.60458458890562
XIWANG-1 (HOPE-1)       
1 36122U 09072B   26181.92372358  .00000267  00000+0  81503-3 0  9993
2 36122 100.4029 135.5371 0007160 197.9430 162.1431 13.16440286794816
O/OREOS (USA 219)       
1 37224U 10062C   26181.05410885  .00002413  00000+0  23294-3 0  9998
2 37224  71.9709  51.1931 0013086  35.6256 324.5785 14.93797573118568
JUGNU                   
1 37839U 11058B   26180.52221220  .00000404  00000+0  71335-4 0  9998
2 37839  19.9594 233.4895 0018388 212.2255 288.6400 14.13779747760775
SRMSAT                  
1 37841U 11058D   26181.73281705  .00000384  00000+0  64635-4 0  9991
2 37841  19.9733 337.4831 0011788 353.4790 121.0128 14.11578376759731
STRAND-1                
1 39090U 13009E   26181.49298304  .00000291  00000+0  11203-3 0  9992
2 39090  98.3924   1.4000 0008490 183.0829 177.0307 14.37171160698970
ZACUBE-1 (TSHEPISOSAT)  
1 39417U 13066B   26181.93805937  .00003400  00000+0  26440-3 0  9997
2 39417  97.8043 144.3451 0042723 201.2286 158.7167 15.01262799682797
GOMX-1                  
1 39430U 13066Q   26181.94053818  .00001660  00000+0  25369-3 0  9991
2 39430  97.6471  21.5352 0129513  33.8479 327.0909 14.69505727671930
