OBJECT_NAME,OBJECT_ID,EPOCH,MEAN_MOTION,ECCENTRICITY,INCLINATION,RA_OF_ASC_NODE,ARG_OF_PERICENTER,MEAN_ANOMALY,EPHEMERIS_TYPE,CLASSIFICATION_TYPE,NORAD_CAT_ID,ELEMENT_SET_NO,REV_AT_EPOCH,BSTAR,MEAN_MOTION_DOT,MEAN_MOTION_DDOT
OSCAR 7 (AO-7),1974-089B,2026-06-30T11:49:48.435744,12.53698351,.00126503,101.9899,194.8782,105.4653,62.9717,0,U,7530,999,36218,.93300358E-4,-.31E-6,0
PHASE 3B (AO-10),1983-058B,2026-06-29T23:51:36.200736,2.05871195,.60065195,25.9232,217.4494,119.1882,313.2024,0,U,14129,999,29575,0,-.15E-5,0
UOSAT 2 (UO-11),1984-021B,2026-06-30T20:19:10.219584,14.90818016,.00087032,97.8065,147.2693,131.0720,229.1252,0,U,14781,999,25916,.16310631E-3,.155E-4,0
LUSAT (LO-19),1990-005G,2026-06-30T12:11:11.723712,14.34127067,.00118828,98.8846,203.6802,161.9556,198.2052,0,U,20442,999,90430,.58343762E-4,.117E-5,0
EYESAT A (AO-27),1993-061C,2026-06-30T21:57:10.421280,14.30945835,.0009391,98.6876,249.3230,64.2642,295.9509,0,U,22825,999,70896,.5970872E-4,.112E-5,0
ITAMSAT (IO-26),1993-061D,2026-06-30T14:38:59.319456,14.31372958,.00097288,98.6824,248.9377,49.7040,310.4992,0,U,22826,999,70923,.55349638E-4,.102E-5,0
RADIO ROSTO (RS15),1994-085A,2026-06-30T22:50:07.821888,11.27583409,.01564092,64.8181,280.9561,1.3290,358.8021,0,U,23439,999,29745,.43208045E-3,-.27E-6,0
JAS-2 (FO-29),1996-046B,2026-06-30T20:10:59.621376,13.53274923,.0350829,98.5227,28.8419,61.1047,302.4816,0,U,24278,999,47501,.9079652E-5,-.24E-6,0
TECHSAT 1B (GO-32),1998-043D,2026-06-30T23:20:23.293248,14.24431061,.00017164,99.0073,175.0791,137.9285,222.2025,0,U,25397,999,45329,.46975487E-4,.62E-6,0
ISS (ZARYA),1998-067A,2026-06-30T20:43:03.172224,15.49494077,.00043098,51.6310,232.3923,252.2804,107.7714,0,U,25544,999,57387,.11295767E-3,.5885E-4,0
PCSAT (NO-44),2001-043C,2026-06-30T10:19:05.019744,14.31960263,.00060294,67.0490,210.0201,265.4507,94.5906,0,U,26931,999,29234,.68747198E-4,.101E-5,0
SAUDISAT 1C (SO-50),2002-058C,2026-06-30T23:29:28.300128,14.83075137,.00749373,64.5520,86.3145,259.9000,99.3646,0,U,27607,999,26650,.12968839E-3,.954E-5,0
CUTE-1 (CO-55),2003-031E,2026-06-29T23:06:24.280128,14.24343456,.00103009,98.6736,189.3610,142.4898,217.7002,0,U,27844,999,19349,.1534011E-3,.311E-5,0
CUBESAT XI-IV (CO-57),2003-031J,2026-06-29T22:59:01.208832,14.23627529,.00097859,98.6768,189.0585,160.0224,200.1339,0,U,27848,999,19319,.13524458E-3,.265E-5,0
MOZHAETS 4 (RS22),2003-042A,2026-07-01T00:20:22.648992,14.73490730,.00101977,98.3465,6.7637,220.5845,290.0157,0,U,27939,999,21758,.11618108E-3,.701E-5,0
CUBESAT XI-V,2005-043F,2026-06-30T09:07:31.727712,14.72666866,.00145552,98.2997,337.2799,159.1785,201.0018,0,U,28895,999,10369,.23930319E-3,.1474E-4,0
CUTE-1.7+APD II (CO-65),2008-021C,2026-06-30T21:41:54.691872,15.09581069,.00083439,97.8277,163.6092,353.8855,6.2270,0,U,32785,999,98726,.39270686E-3,.6246E-4,0
SEEDS II (CO-66),2008-021J,2026-06-30T23:22:16.171392,15.33219425,.00012545,97.7516,180.5337,192.0562,168.0649,0,U,32791,999,98940,.65941661E-3,.21117E-3,0
YUBILEINY (RS30),2008-025A,2026-06-30T22:34:35.426784,12.43180517,.00185151,82.5042,346.8830,282.1118,77.7887,0,U,32953,999,82140,.63876181E-3,.99E-6,0
KKS-1 (KISEKI),2009-002H,2026-06-30T21:13:51.711456,14.83158419,.00064819,98.1184,104.5439,241.5806,118.4754,0,U,33499,999,93822,.1779257E-3,.1396E-4,0
SWISSCUBE,2009-051B,2026-06-30T23:43:58.398240,14.62507548,.00069679,98.4025,90.1172,158.7249,201.4242,0,U,35932,999,89117,.21680637E-3,.105E-4,0
BEESAT-1,2009-051C,2026-06-30T12:37:55.598880,14.61741181,.00051336,98.3953,89.2540,171.1167,189.0125,0,U,35933,999,89113,.17585542E-3,.828E-5,0
ITUPSAT1,2009-051E,2026-06-29T16:57:44.860608,14.60458458,.00069532,98.4038,87.6006,190.2945,169.8114,0,U,35935,999,89056,.16667647E-3,.759E-5,0
XIWANG-1 (HOPE-1),2009-072B,2026-06-30T22:10:09.717312,13.16440286,.00071607,100.4029,135.5371,197.9430,162.1431,0,U,36122,999,79481,.81502919E-3,.267E-5,0
O/OREOS (USA 219),2010-062C,2026-06-30T01:17:55.004640,14.93797573,.00130865,71.9709,51.1931,35.6256,324.5785,0,U,37224,999,11856,.23293588E-3,.2413E-4,0
JUGNU,2011-058B,2026-06-29T12:31:59.134080,14.13779747,.00183885,19.9594,233.4895,212.2255,288.6400,0,U,37839,999,76077,.71335275E-4,.404E-5,0
SRMSAT,2011-058D,2026-06-30T17:35:15.393120,14.11578376,.00117885,19.9733,337.4831,353.4790,121.0128,0,U,37841,999,75973,.64634737E-4,.384E-5,0
STRAND-1,2013-009E,2026-06-30T11:49:53.734656,14.37171160,.00084907,98.3924,1.4000,183.0829,177.0307,0,U,39090,999,69897,.11203189E-3,.291E-5,0
ZACUBE-1 (TSHEPISOSAT),2013-066B,2026-06-30T22:30:48.329568,15.01262799,.00427237,97.8043,144.3451,201.2286,158.7167,0,U,39417,999,68279,.26440292E-3,.34E-4,0
GOMX-1,2013-066Q,2026-06-30T22:34:22.498752,14.69505727,.0129513,97.6471,21.5352,33.8479,327.0909,0,U,39430,999,67193,.25369076E-3,.166E-4,0
